NORAD_CAT_ID,OBJECT_NAME,OBJECT_TYPE,EPOCH,MEAN_MOTION,ECCENTRICITY,INCLINATION,RA_OF_ASC_NODE,ARG_OF_PERICENTER,MEAN_ANOMALY,BSTAR,MEAN_MOTION_DOT,MEAN_MOTION_DDOT,TLE_LINE0,TLE_LINE1,TLE_LINE2,SEMIMAJOR_AXIS,PERIOD,APOGEE,PERIGEE,DECAYED
51977.0,STARLINK-3660,PAYLOAD,2024-06-13 05:41:13,15.08845679,0.000131,53.2183,347.2992,100.2056,259.9084,4.934e-05,4.98e-06,0.0,0 STARLINK-3660,1 51977U 22025X   24165.23696153  .00000498  00000-0  49340-4 0  9998,2 51977  53.2183 347.2992 0001310 100.2056 259.9084 15.08845679126647,6917.863,95.437,540.634,538.822,0.0
51977.0,STARLINK-3660,PAYLOAD,2024-06-13 18:24:18,15.08852436,0.0001274,53.2172,344.9211,89.4159,270.6979,0.00021518,3.139e-05,0.0,0 STARLINK-3660,1 51977U 22025X   24165.76687862  .00003139  00000-0  21518-3 0  9994,2 51977  53.2172 344.9211 0001274  89.4159 270.6979 15.08852436125634,6917.842,95.437,540.589,538.826,0.0
51977.0,STARLINK-3660,PAYLOAD,2024-06-14 11:53:33,15.08839735,0.0001537,53.2183,341.6482,106.5073,253.6088,0.00033107,4.985e-05,0.0,0 STARLINK-3660,1 51977U 22025X   24166.49552515  .00004985  00000-0  33107-3 0  9998,2 51977  53.2183 341.6482 0001537 106.5073 253.6088 15.08839735125749,6917.881,95.438,540.809,538.683,0.0
51977.0,STARLINK-3660,PAYLOAD,2024-06-14 18:15:05,15.08838387,0.0001341,53.2181,340.4615,101.1711,258.9432,0.000158,2.227e-05,0.0,0 STARLINK-3660,1 51977U 22025X   24166.76048518  .00002227  00000-0  15800-3 0  9998,2 51977  53.2181 340.4615 0001341 101.1711 258.9432 15.08838387125782,6917.885,95.438,540.678,538.823,0.0
51977.0,STARLINK-3660,PAYLOAD,2024-06-15 14:55:06,15.08848632,0.0001378,53.2198,336.5953,99.5493,260.5655,5.6679e-05,6.14e-06,0.0,0 STARLINK-3660,1 51977U 22025X   24167.62159856  .00000614  00000-0  56679-4 0  9990,2 51977  53.2198 336.5953 0001378  99.5493 260.5655 15.08848632125913,6917.854,95.437,540.672,538.766,0.0
51977.0,STARLINK-3660,PAYLOAD,2024-06-15 18:05:52,15.08851379,0.0001414,53.2187,336.0032,86.3562,273.7592,7.2051e-05,8.59e-06,0.0,0 STARLINK-3660,1 51977U 22025X   24167.75407673  .00000859  00000-0  72051-4 0  9990,2 51977  53.2187 336.0032 0001414  86.3562 273.7592 15.08851379125936,6917.846,95.437,540.689,538.732,0.0
51977.0,STARLINK-3660,PAYLOAD,2024-06-16 14:45:53,15.08838273,0.0001367,53.2183,332.1364,91.9824,268.1325,0.00010686,1.413e-05,0.0,0 STARLINK-3660,1 51977U 22025X   24168.61520245  .00001413  00000-0  10686-3 0  9999,2 51977  53.2183 332.1364 0001367  91.9824 268.1325 15.08838273126062,6917.886,95.438,540.696,538.805,0.0
51977.0,STARLINK-3660,PAYLOAD,2024-06-16 17:56:39,15.08837376,0.0001178,53.2195,331.5422,90.376,269.7367,0.00017248,2.458e-05,0.0,0 STARLINK-3660,1 51977U 22025X   24168.74768144  .00002458  00000-0  17248-3 0  9996,2 51977  53.2195 331.5422 0001178  90.3760 269.7367 15.08837376126083,6917.888,95.438,540.568,538.938,0.0
51977.0,STARLINK-3660,PAYLOAD,2024-06-17 17:47:27,15.08833397,0.0001471,53.2201,327.0832,106.1329,253.9825,-3.8114e-05,-8.94e-06,0.0,0 STARLINK-3660,1 51977U 22025X   24169.74129023 -.00000894  00000-0 -38114-4 0  9994,2 51977  53.2201 327.0832 0001471 106.1329 253.9825 15.08833397127320,6917.901,95.438,540.783,538.748,0.0
51977.0,STARLINK-3660,PAYLOAD,2024-06-18 14:27:28,15.08837884,0.0001416,53.2203,323.2172,105.539,254.5759,6.0924e-05,6.82e-06,0.0,0 STARLINK-3660,1 51977U 22025X   24170.60240754  .00000682  00000-0  60924-4 0  9993,2 51977  53.2203 323.2172 0001416 105.5390 254.5759 15.08837884126368,6917.887,95.438,540.731,538.772,0.0
51977.0,STARLINK-3660,PAYLOAD,2024-06-18 19:13:37,15.08843147,0.0001351,53.2202,322.3234,100.1477,259.9667,8.421e-05,1.053e-05,0.0,0 STARLINK-3660,1 51977U 22025X   24170.80112380  .00001053  00000-0  84210-4 0  9995,2 51977  53.2202 322.3234 0001351 100.1477 259.9667 15.08843147127481,6917.871,95.437,540.67,538.801,0.0
51977.0,STARLINK-3660,PAYLOAD,2024-06-19 03:10:33,15.08837057,0.00013,53.2185,320.8336,88.6932,271.4209,3.6204e-05,2.88e-06,0.0,0 STARLINK-3660,1 51977U 22025X   24171.13232891  .00000288  00000-0  36204-4 0  9991,2 51977  53.2185 320.8336 0001300  88.6932 271.4209 15.08837057127537,6917.889,95.438,540.654,538.855,0.0
51977.0,STARLINK-3660,PAYLOAD,2024-06-19 14:18:15,15.08834912,0.0001382,53.2165,318.7529,89.2376,270.8775,0.00011346,1.518e-05,0.0,0 STARLINK-3660,1 51977U 22025X   24171.59600977  .00001518  00000-0  11346-3 0  9991,2 51977  53.2165 318.7529 0001382  89.2376 270.8775 15.08834912126519,6917.896,95.438,540.717,538.805,0.0
51977.0,STARLINK-3660,PAYLOAD,2024-06-19 17:29:01,15.08836626,0.000145,53.2188,318.1592,90.3465,269.7694,0.00014043,1.947e-05,0.0,0 STARLINK-3660,1 51977U 22025X   24171.72848860  .00001947  00000-0  14043-3 0  9994,2 51977  53.2188 318.1592 0001450  90.3465 269.7694 15.08836626126539,6917.891,95.438,540.759,538.753,0.0
51977.0,STARLINK-3660,PAYLOAD,2024-06-20 14:09:02,15.08836953,0.0001288,53.2188,314.2943,80.5605,279.5533,6.3347e-05,7.2e-06,0.0,0 STARLINK-3660,1 51977U 22025X   24172.58961346  .00000720  00000-0  63347-4 0  9994,2 51977  53.2188 314.2943 0001288  80.5605 279.5533 15.08836953126660,6917.89,95.438,540.646,538.864,0.0
51977.0,STARLINK-3660,PAYLOAD,2024-06-20 15:44:25,15.0884222,0.0001367,53.2188,313.997,79.1407,280.9739,4.8005e-06,-2.12e-06,0.0,0 STARLINK-3660,1 51977U 22025X   24172.65585206 -.00000212  00000-0  48005-5 0  9991,2 51977  53.2188 313.9970 0001367  79.1407 280.9739 15.08842220127768,6917.874,95.437,540.684,538.793,0.0
51977.0,STARLINK-3660,PAYLOAD,2024-06-21 13:59:49,15.08854581,0.0001564,53.2187,309.8344,76.2604,283.8563,-0.00019281,-3.357e-05,0.0,0 STARLINK-3660,1 51977U 22025X   24173.58320908 -.00003357  00000-0 -19281-3 0  9996,2 51977  53.2187 309.8344 0001564  76.2604 283.8563 15.08854581126817,6917.836,95.437,540.783,538.619,0.0
51977.0,STARLINK-3660,PAYLOAD,2024-06-21 15:35:12,15.08840054,0.0001443,53.2189,309.5371,73.8738,286.2413,3.6112e-05,2.87e-06,0.0,0 STARLINK-3660,1 51977U 22025X   24173.64945388  .00000287  00000-0  36112-4 0  9998,2 51977  53.2189 309.5371 0001443  73.8738 286.2413 15.08840054126825,6917.88,95.438,540.743,538.747,0.0
51977.0,STARLINK-3660,PAYLOAD,2024-06-22 12:15:13,15.08839791,0.0001328,53.218,305.6717,71.392,288.7216,7.8783e-05,9.66e-06,0.0,0 STARLINK-3660,1 51977U 22025X   24174.51057281  .00000966  00000-0  78783-4 0  9995,2 51977  53.2180 305.6717 0001328  71.3920 288.7216 15.08839791128045,6917.881,95.438,540.665,538.827,0.0
51977.0,STARLINK-3660,PAYLOAD,2024-06-22 13:50:36,15.08839565,0.00013,53.2183,305.3745,71.1318,288.9815,7.8133e-05,9.56e-06,0.0,0 STARLINK-3660,1 51977U 22025X   24174.57681302  .00000956  00000-0  78133-4 0  9996,2 51977  53.2183 305.3745 0001300  71.1318 288.9815 15.08839565126960,6917.882,95.438,540.646,538.847,0.0
51977.0,STARLINK-3660,PAYLOAD,2024-06-22 18:36:45,15.08845233,0.0001404,53.2194,304.4806,103.4642,256.6507,9.6281e-05,1.245e-05,0.0,0 STARLINK-3660,1 51977U 22025X   24174.77552740  .00001245  00000-0  96281-4 0  9997,2 51977  53.2194 304.4806 0001404 103.4642 256.6507 15.08845233126996,6917.864,95.437,540.701,538.758,0.0
51977.0,STARLINK-3660,PAYLOAD,2024-06-23 13:41:23,15.08842016,0.0001455,53.2191,300.9078,118.0506,242.0634,3.5667e-05,2.8e-06,0.0,0 STARLINK-3660,1 51977U 22025X   24175.57041024  .00000280  00000-0  35667-4 0  9993,2 51977  53.2191 300.9078 0001455 118.0506 242.0634 15.08842016128204,6917.874,95.437,540.746,538.733,0.0
51977.0,STARLINK-3660,PAYLOAD,2024-06-23 18:27:32,15.08841921,0.0001449,53.2189,300.0167,116.8914,243.2226,5.1515e-05,5.32e-06,0.0,0 STARLINK-3660,1 51977U 22025X   24175.76912998  .00000532  00000-0  51515-4 0  9991,2 51977  53.2189 300.0167 0001449 116.8914 243.2226 15.08841921127149,6917.875,95.437,540.742,538.737,0.0
51977.0,STARLINK-3660,PAYLOAD,2024-06-24 13:32:10,15.08846147,0.0001269,53.2182,296.4495,103.3844,256.7289,4.5928e-05,4.43e-06,0.0,0 STARLINK-3660,1 51977U 22025X   24176.56400763  .00000443  00000-0  45928-4 0  9994,2 51977  53.2182 296.4495 0001269 103.3844 256.7289 15.08846147127263,6917.862,95.437,540.604,538.849,0.0
51977.0,STARLINK-3660,PAYLOAD,2024-06-24 15:07:33,15.08847359,0.0001314,53.2184,296.1521,105.6787,254.435,5.7518e-05,6.28e-06,0.0,0 STARLINK-3660,1 51977U 22025X   24176.63024629  .00000628  00000-0  57518-4 0  9998,2 51977  53.2184 296.1521 0001314 105.6787 254.4350 15.08847359128366,6917.858,95.437,540.632,538.814,0.0
51977.0,STARLINK-3660,PAYLOAD,2024-06-25 13:22:57,15.0883665,0.0001435,53.2192,291.9905,107.4895,252.6254,8.4909e-06,-1.53e-06,0.0,0 STARLINK-3660,1 51977U 22025X   24177.55761533 -.00000153  00000-0  84909-5 0  9991,2 51977  53.2192 291.9905 0001435 107.4895 252.6254 15.08836650128509,6917.891,95.438,540.748,538.763,0.0
51977.0,STARLINK-3660,PAYLOAD,2024-06-26 11:38:21,15.08845667,0.0001499,53.2193,287.8275,104.4449,255.671,5.3769e-05,5.68e-06,0.0,0 STARLINK-3660,1 51977U 22025X   24178.48496807  .00000568  00000-0  53769-4 0  9991,2 51977  53.2193 287.8275 0001499 104.4449 255.6710 15.08845667128649,6917.863,95.437,540.765,538.691,0.0
51977.0,STARLINK-3660,PAYLOAD,2024-06-27 13:04:33,15.08827675,0.0001069,53.2177,283.0703,84.2419,275.8695,-9.6813e-05,-1.828e-05,0.0,0 STARLINK-3660,1 51977U 22025X   24179.54483014 -.00001828  00000-0 -96813-4 0  9994,2 51977  53.2177 283.0703 0001069  84.2419 275.8695 15.08827675128803,6917.918,95.438,540.523,539.044,0.0
51977.0,STARLINK-3660,PAYLOAD,2024-06-27 19:26:05,15.08833551,0.0001112,53.2175,281.8796,83.0369,277.0749,-4.4095e-05,-9.89e-06,0.0,0 STARLINK-3660,1 51977U 22025X   24179.80978597 -.00000989  00000-0 -44095-4 0  9990,2 51977  53.2175 281.8796 0001112  83.0369 277.0749 15.08833551128847,6917.9,95.438,540.534,538.996,0.0
51977.0,STARLINK-3660,PAYLOAD,2024-06-28 00:12:14,15.08838549,0.0001092,53.2172,280.9886,86.6391,273.4726,3.0198e-06,-2.4e-06,0.0,0 STARLINK-3660,1 51977U 22025X   24180.00850056 -.00000240  00000-0  30198-5 0  9992,2 51977  53.2172 280.9886 0001092  86.6391 273.4726 15.08838549128875,6917.885,95.438,540.505,538.994,0.0
